{
  "type": "FeatureCollection",
  "features": [
    {
      "type": "Feature",
      "id": "plot-p001",
      "properties": {
        "plot_number": "P001",
        "geometry_ref": "plot-p001"
      },
      "geometry": {
        "type": "Polygon",
        "coordinates": [
          [
            [
              73.4062,
              18.7546
            ],
            [
              73.40643717052409,
              18.7546
            ],
            [
              73.40643717052409,
              18.75428454258675
            ],
            [
              73.4062,
              18.75428454258675
            ],
            [
              73.4062,
              18.7546
            ]
          ]
        ]
      }
    },
    {
      "type": "Feature",
      "id": "plot-p002",
      "properties": {
        "plot_number": "P002",
        "geometry_ref": "plot-p002"
      },
      "geometry": {
        "type": "Polygon",
        "coordinates": [
          [
            [
              73.4064846046289,
              18.7546
            ],
            [
              73.40672177515299,
              18.7546
            ],
            [
              73.40672177515299,
              18.75428454258675
            ],
            [
              73.4064846046289,
              18.75428454258675
            ],
            [
              73.4064846046289,
              18.7546
            ]
          ]
        ]
      }
    },
    {
      "type": "Feature",
      "id": "plot-p003",
      "properties": {
        "plot_number": "P003",
        "geometry_ref": "plot-p003"
      },
      "geometry": {
        "type": "Polygon",
        "coordinates": [
          [
            [
              73.4067692092578,
              18.7546
            ],
            [
              73.40700637978189,
              18.7546
            ],
            [
              73.40700637978189,
              18.75428454258675
            ],
            [
              73.4067692092578,
              18.75428454258675
            ],
            [
              73.4067692092578,
              18.7546
            ]
          ]
        ]
      }
    },
    {
      "type": "Feature",
      "id": "plot-p004",
      "properties": {
        "plot_number": "P004",
        "geometry_ref": "plot-p004"
      },
      "geometry": {
        "type": "Polygon",
        "coordinates": [
          [
            [
              73.40705381388672,
              18.7546
            ],
            [
              73.4072909844108,
              18.7546
            ],
            [
              73.4072909844108,
              18.75428454258675
            ],
            [
              73.40705381388672,
              18.75428454258675
            ],
            [
              73.40705381388672,
              18.7546
            ]
          ]
        ]
      }
    },
    {
      "type": "Feature",
      "id": "plot-p005",
      "properties": {
        "plot_number": "P005",
        "geometry_ref": "plot-p005"
      },
      "geometry": {
        "type": "Polygon",
        "coordinates": [
          [
            [
              73.40733841851562,
              18.7546
            ],
            [
              73.40757558903971,
              18.7546
            ],
            [
              73.40757558903971,
              18.75428454258675
            ],
            [
              73.40733841851562,
              18.75428454258675
            ],
            [
              73.40733841851562,
              18.7546
            ]
          ]
        ]
      }
    },
    {
      "type": "Feature",
      "id": "plot-p006",
      "properties": {
        "plot_number": "P006",
        "geometry_ref": "plot-p006"
      },
      "geometry": {
        "type": "Polygon",
        "coordinates": [
          [
            [
              73.40762302314452,
              18.7546
            ],
            [
              73.40786019366861,
              18.7546
            ],
            [
              73.40786019366861,
              18.75428454258675
            ],
            [
              73.40762302314452,
              18.75428454258675
            ],
            [
              73.40762302314452,
              18.7546
            ]
          ]
        ]
      }
    },
    {
      "type": "Feature",
      "id": "plot-p007",
      "properties": {
        "plot_number": "P007",
        "geometry_ref": "plot-p007"
      },
      "geometry": {
        "type": "Polygon",
        "coordinates": [
          [
            [
              73.40790762777343,
              18.7546
            ],
            [
              73.40814479829751,
              18.7546
            ],
            [
              73.40814479829751,
              18.75428454258675
            ],
            [
              73.40790762777343,
              18.75428454258675
            ],
            [
              73.40790762777343,
              18.7546
            ]
          ]
        ]
      }
    },
    {
      "type": "Feature",
      "id": "plot-p008",
      "properties": {
        "plot_number": "P008",
        "geometry_ref": "plot-p008"
      },
      "geometry": {
        "type": "Polygon",
        "coordinates": [
          [
            [
              73.40819223240234,
              18.7546
            ],
            [
              73.40842940292643,
              18.7546
            ],
            [
              73.40842940292643,
              18.75428454258675
            ],
            [
              73.40819223240234,
              18.75428454258675
            ],
            [
              73.40819223240234,
              18.7546
            ]
          ]
        ]
      }
    },
    {
      "type": "Feature",
      "id": "plot-p009",
      "properties": {
        "plot_number": "P009",
        "geometry_ref": "plot-p009"
      },
      "geometry": {
        "type": "Polygon",
        "coordinates": [
          [
            [
              73.40847683703124,
              18.7546
            ],
            [
              73.40871400755533,
              18.7546
            ],
            [
              73.40871400755533,
              18.75428454258675
            ],
            [
              73.40847683703124,
              18.75428454258675
            ],
            [
              73.40847683703124,
              18.7546
            ]
          ]
        ]
      }
    },
    {
      "type": "Feature",
      "id": "plot-p010",
      "properties": {
        "plot_number": "P010",
        "geometry_ref": "plot-p010"
      },
      "geometry": {
        "type": "Polygon",
        "coordinates": [
          [
            [
              73.40876144166015,
              18.7546
            ],
            [
              73.40899861218423,
              18.7546
            ],
            [
              73.40899861218423,
              18.75428454258675
            ],
            [
              73.40876144166015,
              18.75428454258675
            ],
            [
              73.40876144166015,
              18.7546
            ]
          ]
        ]
      }
    },
    {
      "type": "Feature",
      "id": "plot-p011",
      "properties": {
        "plot_number": "P011",
        "geometry_ref": "plot-p011"
      },
      "geometry": {
        "type": "Polygon",
        "coordinates": [
          [
            [
              73.4062,
              18.754239477242002
            ],
            [
              73.40643717052409,
              18.754239477242002
            ],
            [
              73.40643717052409,
              18.75392401982875
            ],
            [
              73.4062,
              18.75392401982875
            ],
            [
              73.4062,
              18.754239477242002
            ]
          ]
        ]
      }
    },
    {
      "type": "Feature",
      "id": "plot-p012",
      "properties": {
        "plot_number": "P012",
        "geometry_ref": "plot-p012"
      },
      "geometry": {
        "type": "Polygon",
        "coordinates": [
          [
            [
              73.4064846046289,
              18.754239477242002
            ],
            [
              73.40672177515299,
              18.754239477242002
            ],
            [
              73.40672177515299,
              18.75392401982875
            ],
            [
              73.4064846046289,
              18.75392401982875
            ],
            [
              73.4064846046289,
              18.754239477242002
            ]
          ]
        ]
      }
    },
    {
      "type": "Feature",
      "id": "plot-p013",
      "properties": {
        "plot_number": "P013",
        "geometry_ref": "plot-p013"
      },
      "geometry": {
        "type": "Polygon",
        "coordinates": [
          [
            [
              73.4067692092578,
              18.754239477242002
            ],
            [
              73.40700637978189,
              18.754239477242002
            ],
            [
              73.40700637978189,
              18.75392401982875
            ],
            [
              73.4067692092578,
              18.75392401982875
            ],
            [
              73.4067692092578,
              18.754239477242002
            ]
          ]
        ]
      }
    },
    {
      "type": "Feature",
      "id": "plot-p014",
      "properties": {
        "plot_number": "P014",
        "geometry_ref": "plot-p014"
      },
      "geometry": {
        "type": "Polygon",
        "coordinates": [
          [
            [
              73.40705381388672,
              18.754239477242002
            ],
            [
              73.4072909844108,
              18.754239477242002
            ],
            [
              73.4072909844108,
              18.75392401982875
            ],
            [
              73.40705381388672,
              18.75392401982875
            ],
            [
              73.40705381388672,
              18.754239477242002
            ]
          ]
        ]
      }
    },
    {
      "type": "Feature",
      "id": "plot-p015",
      "properties": {
        "plot_number": "P015",
        "geometry_ref": "plot-p015"
      },
      "geometry": {
        "type": "Polygon",
        "coordinates": [
          [
            [
              73.40733841851562,
              18.754239477242002
            ],
            [
              73.40757558903971,
              18.754239477242002
            ],
            [
              73.40757558903971,
              18.75392401982875
            ],
            [
              73.40733841851562,
              18.75392401982875
            ],
            [
              73.40733841851562,
              18.754239477242002
            ]
          ]
        ]
      }
    },
    {
      "type": "Feature",
      "id": "plot-p016",
      "properties": {
        "plot_number": "P016",
        "geometry_ref": "plot-p016"
      },
      "geometry": {
        "type": "Polygon",
        "coordinates": [
          [
            [
              73.40762302314452,
              18.754239477242002
            ],
            [
              73.40786019366861,
              18.754239477242002
            ],
            [
              73.40786019366861,
              18.75392401982875
            ],
            [
              73.40762302314452,
              18.75392401982875
            ],
            [
              73.40762302314452,
              18.754239477242002
            ]
          ]
        ]
      }
    },
    {
      "type": "Feature",
      "id": "plot-p017",
      "properties": {
        "plot_number": "P017",
        "geometry_ref": "plot-p017"
      },
      "geometry": {
        "type": "Polygon",
        "coordinates": [
          [
            [
              73.40790762777343,
              18.754239477242002
            ],
            [
              73.40814479829751,
              18.754239477242002
            ],
            [
              73.40814479829751,
              18.75392401982875
            ],
            [
              73.40790762777343,
              18.75392401982875
            ],
            [
              73.40790762777343,
              18.754239477242002
            ]
          ]
        ]
      }
    },
    {
      "type": "Feature",
      "id": "plot-p018",
      "properties": {
        "plot_number": "P018",
        "geometry_ref": "plot-p018"
      },
      "geometry": {
        "type": "Polygon",
        "coordinates": [
          [
            [
              73.40819223240234,
              18.754239477242002
            ],
            [
              73.40842940292643,
              18.754239477242002
            ],
            [
              73.40842940292643,
              18.75392401982875
            ],
            [
              73.40819223240234,
              18.75392401982875
            ],
            [
              73.40819223240234,
              18.754239477242002
            ]
          ]
        ]
      }
    },
    {
      "type": "Feature",
      "id": "plot-p019",
      "properties": {
        "plot_number": "P019",
        "geometry_ref": "plot-p019"
      },
      "geometry": {
        "type": "Polygon",
        "coordinates": [
          [
            [
              73.40847683703124,
              18.754239477242002
            ],
            [
              73.40871400755533,
              18.754239477242002
            ],
            [
              73.40871400755533,
              18.75392401982875
            ],
            [
              73.40847683703124,
              18.75392401982875
            ],
            [
              73.40847683703124,
              18.754239477242002
            ]
          ]
        ]
      }
    },
    {
      "type": "Feature",
      "id": "plot-p020",
      "properties": {
        "plot_number": "P020",
        "geometry_ref": "plot-p020"
      },
      "geometry": {
        "type": "Polygon",
        "coordinates": [
          [
            [
              73.40876144166015,
              18.754239477242002
            ],
            [
              73.40899861218423,
              18.754239477242002
            ],
            [
              73.40899861218423,
              18.75392401982875
            ],
            [
              73.40876144166015,
              18.75392401982875
            ],
            [
              73.40876144166015,
              18.754239477242002
            ]
          ]
        ]
      }
    },
    {
      "type": "Feature",
      "id": "plot-p021",
      "properties": {
        "plot_number": "P021",
        "geometry_ref": "plot-p021"
      },
      "geometry": {
        "type": "Polygon",
        "coordinates": [
          [
            [
              73.4062,
              18.753878954484
            ],
            [
              73.40643717052409,
              18.753878954484
            ],
            [
              73.40643717052409,
              18.75356349707075
            ],
            [
              73.4062,
              18.75356349707075
            ],
            [
              73.4062,
              18.753878954484
            ]
          ]
        ]
      }
    },
    {
      "type": "Feature",
      "id": "plot-p022",
      "properties": {
        "plot_number": "P022",
        "geometry_ref": "plot-p022"
      },
      "geometry": {
        "type": "Polygon",
        "coordinates": [
          [
            [
              73.4064846046289,
              18.753878954484
            ],
            [
              73.40672177515299,
              18.753878954484
            ],
            [
              73.40672177515299,
              18.75356349707075
            ],
            [
              73.4064846046289,
              18.75356349707075
            ],
            [
              73.4064846046289,
              18.753878954484
            ]
          ]
        ]
      }
    },
    {
      "type": "Feature",
      "id": "plot-p023",
      "properties": {
        "plot_number": "P023",
        "geometry_ref": "plot-p023"
      },
      "geometry": {
        "type": "Polygon",
        "coordinates": [
          [
            [
              73.4067692092578,
              18.753878954484
            ],
            [
              73.40700637978189,
              18.753878954484
            ],
            [
              73.40700637978189,
              18.75356349707075
            ],
            [
              73.4067692092578,
              18.75356349707075
            ],
            [
              73.4067692092578,
              18.753878954484
            ]
          ]
        ]
      }
    },
    {
      "type": "Feature",
      "id": "plot-p024",
      "properties": {
        "plot_number": "P024",
        "geometry_ref": "plot-p024"
      },
      "geometry": {
        "type": "Polygon",
        "coordinates": [
          [
            [
              73.40705381388672,
              18.753878954484
            ],
            [
              73.4072909844108,
              18.753878954484
            ],
            [
              73.4072909844108,
              18.75356349707075
            ],
            [
              73.40705381388672,
              18.75356349707075
            ],
            [
              73.40705381388672,
              18.753878954484
            ]
          ]
        ]
      }
    },
    {
      "type": "Feature",
      "id": "plot-p025",
      "properties": {
        "plot_number": "P025",
        "geometry_ref": "plot-p025"
      },
      "geometry": {
        "type": "Polygon",
        "coordinates": [
          [
            [
              73.40733841851562,
              18.753878954484
            ],
            [
              73.40757558903971,
              18.753878954484
            ],
            [
              73.40757558903971,
              18.75356349707075
            ],
            [
              73.40733841851562,
              18.75356349707075
            ],
            [
              73.40733841851562,
              18.753878954484
            ]
          ]
        ]
      }
    },
    {
      "type": "Feature",
      "id": "plot-p026",
      "properties": {
        "plot_number": "P026",
        "geometry_ref": "plot-p026"
      },
      "geometry": {
        "type": "Polygon",
        "coordinates": [
          [
            [
              73.40762302314452,
              18.753878954484
            ],
            [
              73.40786019366861,
              18.753878954484
            ],
            [
              73.40786019366861,
              18.75356349707075
            ],
            [
              73.40762302314452,
              18.75356349707075
            ],
            [
              73.40762302314452,
              18.753878954484
            ]
          ]
        ]
      }
    },
    {
      "type": "Feature",
      "id": "plot-p027",
      "properties": {
        "plot_number": "P027",
        "geometry_ref": "plot-p027"
      },
      "geometry": {
        "type": "Polygon",
        "coordinates": [
          [
            [
              73.40790762777343,
              18.753878954484
            ],
            [
              73.40814479829751,
              18.753878954484
            ],
            [
              73.40814479829751,
              18.75356349707075
            ],
            [
              73.40790762777343,
              18.75356349707075
            ],
            [
              73.40790762777343,
              18.753878954484
            ]
          ]
        ]
      }
    },
    {
      "type": "Feature",
      "id": "plot-p028",
      "properties": {
        "plot_number": "P028",
        "geometry_ref": "plot-p028"
      },
      "geometry": {
        "type": "Polygon",
        "coordinates": [
          [
            [
              73.40819223240234,
              18.753878954484
            ],
            [
              73.40842940292643,
              18.753878954484
            ],
            [
              73.40842940292643,
              18.75356349707075
            ],
            [
              73.40819223240234,
              18.75356349707075
            ],
            [
              73.40819223240234,
              18.753878954484
            ]
          ]
        ]
      }
    },
    {
      "type": "Feature",
      "id": "plot-p029",
      "properties": {
        "plot_number": "P029",
        "geometry_ref": "plot-p029"
      },
      "geometry": {
        "type": "Polygon",
        "coordinates": [
          [
            [
              73.40847683703124,
              18.753878954484
            ],
            [
              73.40871400755533,
              18.753878954484
            ],
            [
              73.40871400755533,
              18.75356349707075
            ],
            [
              73.40847683703124,
              18.75356349707075
            ],
            [
              73.40847683703124,
              18.753878954484
            ]
          ]
        ]
      }
    },
    {
      "type": "Feature",
      "id": "plot-p030",
      "properties": {
        "plot_number": "P030",
        "geometry_ref": "plot-p030"
      },
      "geometry": {
        "type": "Polygon",
        "coordinates": [
          [
            [
              73.40876144166015,
              18.753878954484
            ],
            [
              73.40899861218423,
              18.753878954484
            ],
            [
              73.40899861218423,
              18.75356349707075
            ],
            [
              73.40876144166015,
              18.75356349707075
            ],
            [
              73.40876144166015,
              18.753878954484
            ]
          ]
        ]
      }
    },
    {
      "type": "Feature",
      "id": "plot-p031",
      "properties": {
        "plot_number": "P031",
        "geometry_ref": "plot-p031"
      },
      "geometry": {
        "type": "Polygon",
        "coordinates": [
          [
            [
              73.4062,
              18.753518431726004
            ],
            [
              73.40643717052409,
              18.753518431726004
            ],
            [
              73.40643717052409,
              18.753202974312753
            ],
            [
              73.4062,
              18.753202974312753
            ],
            [
              73.4062,
              18.753518431726004
            ]
          ]
        ]
      }
    },
    {
      "type": "Feature",
      "id": "plot-p032",
      "properties": {
        "plot_number": "P032",
        "geometry_ref": "plot-p032"
      },
      "geometry": {
        "type": "Polygon",
        "coordinates": [
          [
            [
              73.4064846046289,
              18.753518431726004
            ],
            [
              73.40672177515299,
              18.753518431726004
            ],
            [
              73.40672177515299,
              18.753202974312753
            ],
            [
              73.4064846046289,
              18.753202974312753
            ],
            [
              73.4064846046289,
              18.753518431726004
            ]
          ]
        ]
      }
    },
    {
      "type": "Feature",
      "id": "plot-p033",
      "properties": {
        "plot_number": "P033",
        "geometry_ref": "plot-p033"
      },
      "geometry": {
        "type": "Polygon",
        "coordinates": [
          [
            [
              73.4067692092578,
              18.753518431726004
            ],
            [
              73.40700637978189,
              18.753518431726004
            ],
            [
              73.40700637978189,
              18.753202974312753
            ],
            [
              73.4067692092578,
              18.753202974312753
            ],
            [
              73.4067692092578,
              18.753518431726004
            ]
          ]
        ]
      }
    },
    {
      "type": "Feature",
      "id": "plot-p034",
      "properties": {
        "plot_number": "P034",
        "geometry_ref": "plot-p034"
      },
      "geometry": {
        "type": "Polygon",
        "coordinates": [
          [
            [
              73.40705381388672,
              18.753518431726004
            ],
            [
              73.4072909844108,
              18.753518431726004
            ],
            [
              73.4072909844108,
              18.753202974312753
            ],
            [
              73.40705381388672,
              18.753202974312753
            ],
            [
              73.40705381388672,
              18.753518431726004
            ]
          ]
        ]
      }
    },
    {
      "type": "Feature",
      "id": "plot-p035",
      "properties": {
        "plot_number": "P035",
        "geometry_ref": "plot-p035"
      },
      "geometry": {
        "type": "Polygon",
        "coordinates": [
          [
            [
              73.40733841851562,
              18.753518431726004
            ],
            [
              73.40757558903971,
              18.753518431726004
            ],
            [
              73.40757558903971,
              18.753202974312753
            ],
            [
              73.40733841851562,
              18.753202974312753
            ],
            [
              73.40733841851562,
              18.753518431726004
            ]
          ]
        ]
      }
    },
    {
      "type": "Feature",
      "id": "plot-p036",
      "properties": {
        "plot_number": "P036",
        "geometry_ref": "plot-p036"
      },
      "geometry": {
        "type": "Polygon",
        "coordinates": [
          [
            [
              73.40762302314452,
              18.753518431726004
            ],
            [
              73.40786019366861,
              18.753518431726004
            ],
            [
              73.40786019366861,
              18.753202974312753
            ],
            [
              73.40762302314452,
              18.753202974312753
            ],
            [
              73.40762302314452,
              18.753518431726004
            ]
          ]
        ]
      }
    },
    {
      "type": "Feature",
      "id": "plot-p037",
      "properties": {
        "plot_number": "P037",
        "geometry_ref": "plot-p037"
      },
      "geometry": {
        "type": "Polygon",
        "coordinates": [
          [
            [
              73.40790762777343,
              18.753518431726004
            ],
            [
              73.40814479829751,
              18.753518431726004
            ],
            [
              73.40814479829751,
              18.753202974312753
            ],
            [
              73.40790762777343,
              18.753202974312753
            ],
            [
              73.40790762777343,
              18.753518431726004
            ]
          ]
        ]
      }
    },
    {
      "type": "Feature",
      "id": "plot-p038",
      "properties": {
        "plot_number": "P038",
        "geometry_ref": "plot-p038"
      },
      "geometry": {
        "type": "Polygon",
        "coordinates": [
          [
            [
              73.40819223240234,
              18.753518431726004
            ],
            [
              73.40842940292643,
              18.753518431726004
            ],
            [
              73.40842940292643,
              18.753202974312753
            ],
            [
              73.40819223240234,
              18.753202974312753
            ],
            [
              73.40819223240234,
              18.753518431726004
            ]
          ]
        ]
      }
    },
    {
      "type": "Feature",
      "id": "plot-p039",
      "properties": {
        "plot_number": "P039",
        "geometry_ref": "plot-p039"
      },
      "geometry": {
        "type": "Polygon",
        "coordinates": [
          [
            [
              73.40847683703124,
              18.753518431726004
            ],
            [
              73.40871400755533,
              18.753518431726004
            ],
            [
              73.40871400755533,
              18.753202974312753
            ],
            [
              73.40847683703124,
              18.753202974312753
            ],
            [
              73.40847683703124,
              18.753518431726004
            ]
          ]
        ]
      }
    },
    {
      "type": "Feature",
      "id": "plot-p040",
      "properties": {
        "plot_number": "P040",
        "geometry_ref": "plot-p040"
      },
      "geometry": {
        "type": "Polygon",
        "coordinates": [
          [
            [
              73.40876144166015,
              18.753518431726004
            ],
            [
              73.40899861218423,
              18.753518431726004
            ],
            [
              73.40899861218423,
              18.753202974312753
            ],
            [
              73.40876144166015,
              18.753202974312753
            ],
            [
              73.40876144166015,
              18.753518431726004
            ]
          ]
        ]
      }
    },
    {
      "type": "Feature",
      "id": "plot-p041",
      "properties": {
        "plot_number": "P041",
        "geometry_ref": "plot-p041"
      },
      "geometry": {
        "type": "Polygon",
        "coordinates": [
          [
            [
              73.4062,
              18.753157908968003
            ],
            [
              73.40643717052409,
              18.753157908968003
            ],
            [
              73.40643717052409,
              18.752842451554752
            ],
            [
              73.4062,
              18.752842451554752
            ],
            [
              73.4062,
              18.753157908968003
            ]
          ]
        ]
      }
    },
    {
      "type": "Feature",
      "id": "plot-p042",
      "properties": {
        "plot_number": "P042",
        "geometry_ref": "plot-p042"
      },
      "geometry": {
        "type": "Polygon",
        "coordinates": [
          [
            [
              73.4064846046289,
              18.753157908968003
            ],
            [
              73.40672177515299,
              18.753157908968003
            ],
            [
              73.40672177515299,
              18.752842451554752
            ],
            [
              73.4064846046289,
              18.752842451554752
            ],
            [
              73.4064846046289,
              18.753157908968003
            ]
          ]
        ]
      }
    },
    {
      "type": "Feature",
      "id": "plot-p043",
      "properties": {
        "plot_number": "P043",
        "geometry_ref": "plot-p043"
      },
      "geometry": {
        "type": "Polygon",
        "coordinates": [
          [
            [
              73.4067692092578,
              18.753157908968003
            ],
            [
              73.40700637978189,
              18.753157908968003
            ],
            [
              73.40700637978189,
              18.752842451554752
            ],
            [
              73.4067692092578,
              18.752842451554752
            ],
            [
              73.4067692092578,
              18.753157908968003
            ]
          ]
        ]
      }
    },
    {
      "type": "Feature",
      "id": "plot-p044",
      "properties": {
        "plot_number": "P044",
        "geometry_ref": "plot-p044"
      },
      "geometry": {
        "type": "Polygon",
        "coordinates": [
          [
            [
              73.40705381388672,
              18.753157908968003
            ],
            [
              73.4072909844108,
              18.753157908968003
            ],
            [
              73.4072909844108,
              18.752842451554752
            ],
            [
              73.40705381388672,
              18.752842451554752
            ],
            [
              73.40705381388672,
              18.753157908968003
            ]
          ]
        ]
      }
    },
    {
      "type": "Feature",
      "id": "plot-p045",
      "properties": {
        "plot_number": "P045",
        "geometry_ref": "plot-p045"
      },
      "geometry": {
        "type": "Polygon",
        "coordinates": [
          [
            [
              73.40733841851562,
              18.753157908968003
            ],
            [
              73.40757558903971,
              18.753157908968003
            ],
            [
              73.40757558903971,
              18.752842451554752
            ],
            [
              73.40733841851562,
              18.752842451554752
            ],
            [
              73.40733841851562,
              18.753157908968003
            ]
          ]
        ]
      }
    },
    {
      "type": "Feature",
      "id": "plot-p046",
      "properties": {
        "plot_number": "P046",
        "geometry_ref": "plot-p046"
      },
      "geometry": {
        "type": "Polygon",
        "coordinates": [
          [
            [
              73.40762302314452,
              18.753157908968003
            ],
            [
              73.40786019366861,
              18.753157908968003
            ],
            [
              73.40786019366861,
              18.752842451554752
            ],
            [
              73.40762302314452,
              18.752842451554752
            ],
            [
              73.40762302314452,
              18.753157908968003
            ]
          ]
        ]
      }
    },
    {
      "type": "Feature",
      "id": "plot-p047",
      "properties": {
        "plot_number": "P047",
        "geometry_ref": "plot-p047"
      },
      "geometry": {
        "type": "Polygon",
        "coordinates": [
          [
            [
              73.40790762777343,
              18.753157908968003
            ],
            [
              73.40814479829751,
              18.753157908968003
            ],
            [
              73.40814479829751,
              18.752842451554752
            ],
            [
              73.40790762777343,
              18.752842451554752
            ],
            [
              73.40790762777343,
              18.753157908968003
            ]
          ]
        ]
      }
    },
    {
      "type": "Feature",
      "id": "plot-p048",
      "properties": {
        "plot_number": "P048",
        "geometry_ref": "plot-p048"
      },
      "geometry": {
        "type": "Polygon",
        "coordinates": [
          [
            [
              73.40819223240234,
              18.753157908968003
            ],
            [
              73.40842940292643,
              18.753157908968003
            ],
            [
              73.40842940292643,
              18.752842451554752
            ],
            [
              73.40819223240234,
              18.752842451554752
            ],
            [
              73.40819223240234,
              18.753157908968003
            ]
          ]
        ]
      }
    },
    {
      "type": "Feature",
      "id": "plot-p049",
      "properties": {
        "plot_number": "P049",
        "geometry_ref": "plot-p049"
      },
      "geometry": {
        "type": "Polygon",
        "coordinates": [
          [
            [
              73.40847683703124,
              18.753157908968003
            ],
            [
              73.40871400755533,
              18.753157908968003
            ],
            [
              73.40871400755533,
              18.752842451554752
            ],
            [
              73.40847683703124,
              18.752842451554752
            ],
            [
              73.40847683703124,
              18.753157908968003
            ]
          ]
        ]
      }
    },
    {
      "type": "Feature",
      "id": "plot-p050",
      "properties": {
        "plot_number": "P050",
        "geometry_ref": "plot-p050"
      },
      "geometry": {
        "type": "Polygon",
        "coordinates": [
          [
            [
              73.40876144166015,
              18.753157908968003
            ],
            [
              73.40899861218423,
              18.753157908968003
            ],
            [
              73.40899861218423,
              18.752842451554752
            ],
            [
              73.40876144166015,
              18.752842451554752
            ],
            [
              73.40876144166015,
              18.753157908968003
            ]
          ]
        ]
      }
    }
  ]
}
